[{"OBJECT_NAME":"STARLINK-5629","OBJECT_ID":"2023-014AE","EPOCH":"2026-01-05T01:35:30.841152","MEAN_MOTION":14.98332714,"ECCENTRICITY":0.00027359,"INCLINATION":69.9989,"RA_OF_ASC_NODE":244.8045,"ARG_OF_PERICENTER":269.1645,"MEAN_ANOMALY":90.9201,"EPHEMERIS_TYPE":0,"CLASSIFICATION_TYPE":"U","NORAD_CAT_ID":55419,"ELEMENT_SET_NO":999,"REV_AT_EPOCH":16203,"BSTAR":-0.0001617797,"MEAN_MOTION_DOT":-2.023e-5,"MEAN_MOTION_DDOT":0},{"OBJECT_NAME":"STARLINK-5604","OBJECT_ID":"2023-014AF","EPOCH":"2026-01-05T15:17:59.709696","MEAN_MOTION":14.98312647,"ECCENTRICITY":0.0002264,"INCLINATION":70,"RA_OF_ASC_NODE":203.454,"ARG_OF_PERICENTER":270.9488,"MEAN_ANOMALY":89.1411,"EPHEMERIS_TYPE":0,"CLASSIFICATION_TYPE":"U","NORAD_CAT_ID":55420,"ELEMENT_SET_NO":999,"REV_AT_EPOCH":16310,"BSTAR":0.00041465356,"MEAN_MOTION_DOT":4.856e-5,"MEAN_MOTION_DDOT":0},{"OBJECT_NAME":"STARLINK-5598","OBJECT_ID":"2023-014AG","EPOCH":"2026-01-05T01:47:31.929504","MEAN_MOTION":14.98326291,"ECCENTRICITY":0.00028107,"INCLINATION":69.9989,"RA_OF_ASC_NODE":244.8365,"ARG_OF_PERICENTER":271.159,"MEAN_ANOMALY":88.9247,"EPHEMERIS_TYPE":0,"CLASSIFICATION_TYPE":"U","NORAD_CAT_ID":55421,"ELEMENT_SET_NO":999,"REV_AT_EPOCH":16203,"BSTAR":2.5989359e-5,"MEAN_MOTION_DOT":2.17e-6,"MEAN_MOTION_DDOT":0},{"OBJECT_NAME":"STARLINK-5006","OBJECT_ID":"2023-014AH","EPOCH":"2026-01-05T14:06:32.787072","MEAN_MOTION":14.98340577,"ECCENTRICITY":0.00032721,"INCLINATION":69.998,"RA_OF_ASC_NODE":243.4099,"ARG_OF_PERICENTER":271.208,"MEAN_ANOMALY":88.8704,"EPHEMERIS_TYPE":0,"CLASSIFICATION_TYPE":"U","NORAD_CAT_ID":55422,"ELEMENT_SET_NO":999,"REV_AT_EPOCH":16211,"BSTAR":-0.00031495743,"MEAN_MOTION_DOT":-3.85e-5,"MEAN_MOTION_DDOT":0},{"OBJECT_NAME":"STARLINK-5068","OBJECT_ID":"2023-014AJ","EPOCH":"2026-01-05T15:00:40.050720","MEAN_MOTION":14.98339774,"ECCENTRICITY":0.000304,"INCLINATION":69.9993,"RA_OF_ASC_NODE":243.545,"ARG_OF_PERICENTER":272.2678,"MEAN_ANOMALY":87.8133,"EPHEMERIS_TYPE":0,"CLASSIFICATION_TYPE":"U","NORAD_CAT_ID":55423,"ELEMENT_SET_NO":999,"REV_AT_EPOCH":16211,"BSTAR":0.0002290091,"MEAN_MOTION_DOT":2.641e-5,"MEAN_MOTION_DDOT":0},{"OBJECT_NAME":"STARLINK-5615","OBJECT_ID":"2023-014AL","EPOCH":"2026-01-05T14:48:39.210336","MEAN_MOTION":14.98320418,"ECCENTRICITY":0.00025844,"INCLINATION":69.9991,"RA_OF_ASC_NODE":243.5189,"ARG_OF_PERICENTER":267.4396,"MEAN_ANOMALY":92.6468,"EPHEMERIS_TYPE":0,"CLASSIFICATION_TYPE":"U","NORAD_CAT_ID":55425,"ELEMENT_SET_NO":999,"REV_AT_EPOCH":16211,"BSTAR":-8.2221771e-5,"MEAN_MOTION_DOT":-1.074e-5,"MEAN_MOTION_DDOT":0},{"OBJECT_NAME":"STARLINK-5638","OBJECT_ID":"2023-014AM","EPOCH":"2026-01-05T15:12:39.963168","MEAN_MOTION":14.98337507,"ECCENTRICITY":0.00027307,"INCLINATION":69.9984,"RA_OF_ASC_NODE":243.5759,"ARG_OF_PERICENTER":272.8555,"MEAN_ANOMALY":87.2291,"EPHEMERIS_TYPE":0,"CLASSIFICATION_TYPE":"U","NORAD_CAT_ID":55426,"ELEMENT_SET_NO":999,"REV_AT_EPOCH":16211,"BSTAR":-7.8322895e-5,"MEAN_MOTION_DOT":-1.028e-5,"MEAN_MOTION_DDOT":0},{"OBJECT_NAME":"STARLINK-5073","OBJECT_ID":"2023-014AN","EPOCH":"2026-01-05T16:00:01.999584","MEAN_MOTION":15.68398115,"ECCENTRICITY":0.00035114,"INCLINATION":69.9964,"RA_OF_ASC_NODE":238.344,"ARG_OF_PERICENTER":266.0336,"MEAN_ANOMALY":210.4724,"EPHEMERIS_TYPE":0,"CLASSIFICATION_TYPE":"U","NORAD_CAT_ID":55427,"ELEMENT_SET_NO":999,"REV_AT_EPOCH":586,"BSTAR":0.0098862553,"MEAN_MOTION_DOT":0.01245133,"MEAN_MOTION_DDOT":0},{"OBJECT_NAME":"STARLINK-5064","OBJECT_ID":"2023-014AP","EPOCH":"2026-01-05T09:00:08.933760","MEAN_MOTION":14.98340968,"ECCENTRICITY":0.00026699,"INCLINATION":69.9988,"RA_OF_ASC_NODE":244.2783,"ARG_OF_PERICENTER":272.491,"MEAN_ANOMALY":87.5943,"EPHEMERIS_TYPE":0,"CLASSIFICATION_TYPE":"U","NORAD_CAT_ID":55428,"ELEMENT_SET_NO":999,"REV_AT_EPOCH":16207,"BSTAR":-0.00018647641,"MEAN_MOTION_DOT":-2.318e-5,"MEAN_MOTION_DDOT":0},{"OBJECT_NAME":"STARLINK-5645","OBJECT_ID":"2023-014AQ","EPOCH":"2026-01-05T15:06:39.277728","MEAN_MOTION":14.98333844,"ECCENTRICITY":0.00025443,"INCLINATION":69.9985,"RA_OF_ASC_NODE":243.5617,"ARG_OF_PERICENTER":272.4189,"MEAN_ANOMALY":87.6679,"EPHEMERIS_TYPE":0,"CLASSIFICATION_TYPE":"U","NORAD_CAT_ID":55429,"ELEMENT_SET_NO":999,"REV_AT_EPOCH":16211,"BSTAR":3.8261946e-5,"MEAN_MOTION_DOT":3.64e-6,"MEAN_MOTION_DDOT":0},{"OBJECT_NAME":"STARLINK-5642","OBJECT_ID":"2023-014AR","EPOCH":"2026-01-05T03:42:01.298880","MEAN_MOTION":14.98321937,"ECCENTRICITY":0.00029693,"INCLINATION":69.9991,"RA_OF_ASC_NODE":264.5701,"ARG_OF_PERICENTER":262.591,"MEAN_ANOMALY":97.4912,"EPHEMERIS_TYPE":0,"CLASSIFICATION_TYPE":"U","NORAD_CAT_ID":55430,"ELEMENT_SET_NO":999,"REV_AT_EPOCH":16155,"BSTAR":-4.7345165e-5,"MEAN_MOTION_DOT":-6.58e-6,"MEAN_MOTION_DDOT":0},{"OBJECT_NAME":"STARLINK-5643","OBJECT_ID":"2023-014AS","EPOCH":"2026-01-05T08:54:08.365824","MEAN_MOTION":14.98336485,"ECCENTRICITY":0.00024949,"INCLINATION":69.9988,"RA_OF_ASC_NODE":244.2634,"ARG_OF_PERICENTER":272.6833,"MEAN_ANOMALY":87.4041,"EPHEMERIS_TYPE":0,"CLASSIFICATION_TYPE":"U","NORAD_CAT_ID":55431,"ELEMENT_SET_NO":999,"REV_AT_EPOCH":16207,"BSTAR":-8.3088021e-5,"MEAN_MOTION_DOT":-1.084e-5,"MEAN_MOTION_DDOT":0},{"OBJECT_NAME":"STARLINK-5637","OBJECT_ID":"2023-014AT","EPOCH":"2026-01-05T03:54:16.836768","MEAN_MOTION":14.98324656,"ECCENTRICITY":0.00026669,"INCLINATION":69.9993,"RA_OF_ASC_NODE":264.6004,"ARG_OF_PERICENTER":266.3793,"MEAN_ANOMALY":93.7061,"EPHEMERIS_TYPE":0,"CLASSIFICATION_TYPE":"U","NORAD_CAT_ID":55432,"ELEMENT_SET_NO":999,"REV_AT_EPOCH":16155,"BSTAR":-2.8674935e-5,"MEAN_MOTION_DOT":-4.35e-6,"MEAN_MOTION_DDOT":0},{"OBJECT_NAME":"STARLINK-5570","OBJECT_ID":"2023-014AU","EPOCH":"2026-01-05T03:36:00.432000","MEAN_MOTION":14.98328707,"ECCENTRICITY":0.00028445,"INCLINATION":69.9992,"RA_OF_ASC_NODE":264.5565,"ARG_OF_PERICENTER":269.7497,"MEAN_ANOMALY":90.3336,"EPHEMERIS_TYPE":0,"CLASSIFICATION_TYPE":"U","NORAD_CAT_ID":55433,"ELEMENT_SET_NO":999,"REV_AT_EPOCH":16155,"BSTAR":-4.1316611e-5,"MEAN_MOTION_DOT":-5.86e-6,"MEAN_MOTION_DDOT":0},{"OBJECT_NAME":"STARLINK-5621","OBJECT_ID":"2023-014AV","EPOCH":"2026-01-05T02:29:55.769280","MEAN_MOTION":14.98330214,"ECCENTRICITY":0.00027512,"INCLINATION":69.999,"RA_OF_ASC_NODE":264.7952,"ARG_OF_PERICENTER":264.258,"MEAN_ANOMALY":95.8266,"EPHEMERIS_TYPE":0,"CLASSIFICATION_TYPE":"U","NORAD_CAT_ID":55434,"ELEMENT_SET_NO":999,"REV_AT_EPOCH":16154,"BSTAR":-8.1862106e-5,"MEAN_MOTION_DOT":-1.07e-5,"MEAN_MOTION_DDOT":0},{"OBJECT_NAME":"STARLINK-5626","OBJECT_ID":"2023-014AW","EPOCH":"2026-01-05T10:18:33.609024","MEAN_MOTION":14.98337885,"ECCENTRICITY":0.00020693,"INCLINATION":69.9993,"RA_OF_ASC_NODE":263.9287,"ARG_OF_PERICENTER":273.1105,"MEAN_ANOMALY":86.9817,"EPHEMERIS_TYPE":0,"CLASSIFICATION_TYPE":"U","NORAD_CAT_ID":55435,"ELEMENT_SET_NO":999,"REV_AT_EPOCH":16159,"BSTAR":7.344535e-5,"MEAN_MOTION_DOT":7.84e-6,"MEAN_MOTION_DDOT":0},{"OBJECT_NAME":"STARLINK-5640","OBJECT_ID":"2023-014AX","EPOCH":"2026-01-05T10:36:36.335808","MEAN_MOTION":14.9833655,"ECCENTRICITY":0.00027229,"INCLINATION":69.9991,"RA_OF_ASC_NODE":263.9694,"ARG_OF_PERICENTER":272.751,"MEAN_ANOMALY":87.3338,"EPHEMERIS_TYPE":0,"CLASSIFICATION_TYPE":"U","NORAD_CAT_ID":55436,"ELEMENT_SET_NO":999,"REV_AT_EPOCH":16159,"BSTAR":-0.00011861786,"MEAN_MOTION_DOT":-1.508e-5,"MEAN_MOTION_DDOT":0},{"OBJECT_NAME":"STARLINK-5074","OBJECT_ID":"2023-014AZ","EPOCH":"2026-01-05T15:00:16.999200","MEAN_MOTION":14.98334369,"ECCENTRICITY":0.00017804,"INCLINATION":69.9995,"RA_OF_ASC_NODE":223.2879,"ARG_OF_PERICENTER":276.2314,"MEAN_ANOMALY":83.8643,"EPHEMERIS_TYPE":0,"CLASSIFICATION_TYPE":"U","NORAD_CAT_ID":55438,"ELEMENT_SET_NO":999,"REV_AT_EPOCH":16261,"BSTAR":4.7356389e-5,"MEAN_MOTION_DOT":4.72e-6,"MEAN_MOTION_DDOT":0},{"OBJECT_NAME":"STARLINK-5634","OBJECT_ID":"2023-014BA","EPOCH":"2026-01-05T10:42:38.398464","MEAN_MOTION":14.98320867,"ECCENTRICITY":0.00030369,"INCLINATION":69.9998,"RA_OF_ASC_NODE":263.9843,"ARG_OF_PERICENTER":266.3164,"MEAN_ANOMALY":93.7648,"EPHEMERIS_TYPE":0,"CLASSIFICATION_TYPE":"U","NORAD_CAT_ID":55439,"ELEMENT_SET_NO":999,"REV_AT_EPOCH":16159,"BSTAR":0.0002248985,"MEAN_MOTION_DOT":2.591e-5,"MEAN_MOTION_DDOT":0},{"OBJECT_NAME":"STARLINK-5699","OBJECT_ID":"2023-015A","EPOCH":"2026-01-05T13:36:28.394784","MEAN_MOTION":15.0254192,"ECCENTRICITY":5.742e-5,"INCLINATION":43.003,"RA_OF_ASC_NODE":309.4203,"ARG_OF_PERICENTER":287.2861,"MEAN_ANOMALY":72.7918,"EPHEMERIS_TYPE":0,"CLASSIFICATION_TYPE":"U","NORAD_CAT_ID":55449,"ELEMENT_SET_NO":999,"REV_AT_EPOCH":16219,"BSTAR":-4.703091e-5,"MEAN_MOTION_DOT":-8.39e-6,"MEAN_MOTION_DDOT":0},{"OBJECT_NAME":"STARLINK-5686","OBJECT_ID":"2023-015B","EPOCH":"2026-01-05T13:41:15.576288","MEAN_MOTION":15.02543575,"ECCENTRICITY":0.00014359,"INCLINATION":43.0045,"RA_OF_ASC_NODE":309.4462,"ARG_OF_PERICENTER":247.0321,"MEAN_ANOMALY":113.037,"EPHEMERIS_TYPE":0,"CLASSIFICATION_TYPE":"U","NORAD_CAT_ID":55450,"ELEMENT_SET_NO":999,"REV_AT_EPOCH":16219,"BSTAR":0.00028808902,"MEAN_MOTION_DOT":3.691e-5,"MEAN_MOTION_DDOT":0},{"OBJECT_NAME":"STARLINK-5656","OBJECT_ID":"2023-015C","EPOCH":"2026-01-05T13:31:39.946656","MEAN_MOTION":15.02540543,"ECCENTRICITY":0.00015152,"INCLINATION":43.0061,"RA_OF_ASC_NODE":309.3987,"ARG_OF_PERICENTER":266.921,"MEAN_ANOMALY":93.1459,"EPHEMERIS_TYPE":0,"CLASSIFICATION_TYPE":"U","NORAD_CAT_ID":55451,"ELEMENT_SET_NO":999,"REV_AT_EPOCH":16125,"BSTAR":3.43425e-5,"MEAN_MOTION_DOT":2.6e-6,"MEAN_MOTION_DDOT":0},{"OBJECT_NAME":"STARLINK-5683","OBJECT_ID":"2023-015D","EPOCH":"2026-01-05T13:25:17.057280","MEAN_MOTION":15.02533492,"ECCENTRICITY":5.526e-5,"INCLINATION":43.0032,"RA_OF_ASC_NODE":309.3595,"ARG_OF_PERICENTER":287.562,"MEAN_ANOMALY":72.5162,"EPHEMERIS_TYPE":0,"CLASSIFICATION_TYPE":"U","NORAD_CAT_ID":55452,"ELEMENT_SET_NO":999,"REV_AT_EPOCH":16125,"BSTAR":9.978695e-6,"MEAN_MOTION_DOT":-6.9e-7,"MEAN_MOTION_DDOT":0}]
